NORAD_CAT_ID,OBJECT_NAME,OBJECT_TYPE,EPOCH,MEAN_MOTION,ECCENTRICITY,INCLINATION,RA_OF_ASC_NODE,ARG_OF_PERICENTER,MEAN_ANOMALY,BSTAR,MEAN_MOTION_DOT,MEAN_MOTION_DDOT,TLE_LINE0,TLE_LINE1,TLE_LINE2,SEMIMAJOR_AXIS,PERIOD,APOGEE,PERIGEE,DECAYED
53802.0,STARLINK-4726,PAYLOAD,2023-09-10 09:27:51,15.08840837,0.0001252,53.2189,34.9501,87.0132,273.1004,6.6478e-05,7.7e-06,0.0,0 STARLINK-4726,1 53802U 22111AF  23253.39434433  .00000770  00000-0  66478-4 0  9992,2 53802  53.2189  34.9501 0001252  87.0132 273.1004 15.08840837 56249,6917.878,95.438,540.609,538.877,0.0
53802.0,STARLINK-4726,PAYLOAD,2023-09-11 02:57:06,15.08825992,0.0001428,53.2191,31.68,93.7815,266.334,0.00034444,5.196e-05,0.0,0 STARLINK-4726,1 53802U 22111AF  23254.12298848  .00005196  00000-0  34444-3 0  9996,2 53802  53.2191  31.6800 0001428  93.7815 266.3340 15.08825992 55549,6917.923,95.438,540.776,538.8,0.0
53802.0,STARLINK-4726,PAYLOAD,2023-09-11 14:04:48,15.0883795,0.0001489,53.2199,29.5983,88.7323,271.384,2.7264e-05,1.46e-06,0.0,0 STARLINK-4726,1 53802U 22111AF  23254.58666788  .00000146  00000-0  27264-4 0  9991,2 53802  53.2199  29.5983 0001489  88.7323 271.3840 15.08837950 56426,6917.887,95.438,540.782,538.722,0.0
53802.0,STARLINK-4726,PAYLOAD,2023-09-11 15:40:10,15.08842177,0.0001451,53.2199,29.2999,96.4924,263.6234,5.8858e-05,6.49e-06,0.0,0 STARLINK-4726,1 53802U 22111AF  23254.65290375  .00000649  00000-0  58858-4 0  9995,2 53802  53.2199  29.2999 0001451  96.4924 263.6234 15.08842177 55621,6917.874,95.437,540.743,538.735,0.0
53802.0,STARLINK-4726,PAYLOAD,2023-09-12 13:55:34,15.08845337,0.0001547,53.22,25.1358,102.9568,257.1597,4.2749e-05,3.93e-06,0.0,0 STARLINK-4726,1 53802U 22111AF  23255.58026103  .00000393  00000-0  42749-4 0  9992,2 53802  53.2200  25.1358 0001547 102.9568 257.1597 15.08845337 56577,6917.864,95.437,540.799,538.659,0.0
53802.0,STARLINK-4726,PAYLOAD,2023-09-12 15:30:57,15.08849597,0.0001417,53.22,24.838,105.9806,254.1343,2.2728e-05,7.4e-07,0.0,0 STARLINK-4726,1 53802U 22111AF  23255.64649844  .00000074  00000-0  22728-4 0  9993,2 53802  53.2200  24.8380 0001417 105.9806 254.1343 15.08849597 56581,6917.851,95.437,540.696,538.736,0.0
53802.0,STARLINK-4726,PAYLOAD,2023-09-13 09:00:12,15.08842754,0.0001381,53.2197,21.5678,98.9723,261.1425,0.00011185,1.493e-05,0.0,0 STARLINK-4726,1 53802U 22111AF  23256.37513907  .00001493  00000-0  11185-3 0  9994,2 53802  53.2197  21.5678 0001381  98.9723 261.1425 15.08842754 55888,6917.872,95.437,540.692,538.782,0.0
53802.0,STARLINK-4726,PAYLOAD,2023-09-13 13:46:20,15.08848593,0.0001413,53.2203,20.6786,90.0401,270.0753,0.00016781,2.384e-05,0.0,0 STARLINK-4726,1 53802U 22111AF  23256.57385383  .00002384  00000-0  16781-3 0  9998,2 53802  53.2203  20.6786 0001413  90.0401 270.0753 15.08848593 56722,6917.854,95.437,540.697,538.742,0.0
53802.0,STARLINK-4726,PAYLOAD,2023-09-13 15:21:43,15.08854661,0.0001447,53.2203,20.3812,94.8121,265.3036,0.0001377,1.905e-05,0.0,0 STARLINK-4726,1 53802U 22111AF  23256.64009079  .00001905  00000-0  13770-3 0  9994,2 53802  53.2203  20.3812 0001447  94.8121 265.3036 15.08854661 55922,6917.836,95.437,540.702,538.7,0.0
53802.0,STARLINK-4726,PAYLOAD,2023-09-14 00:54:03,15.08835359,0.0001438,53.2199,18.5944,95.8843,264.2313,4.4747e-06,-2.17e-06,0.0,0 STARLINK-4726,1 53802U 22111AF  23257.03754595 -.00000217  00000-0  44747-5 0  9994,2 53802  53.2199  18.5944 0001438  95.8843 264.2313 15.08835359 55988,6917.895,95.438,540.754,538.765,0.0
53802.0,STARLINK-4726,PAYLOAD,2023-09-14 07:15:37,15.08828863,0.0001574,53.2202,17.412,98.2068,261.9103,-1.9505e-06,-3.19e-06,0.0,0 STARLINK-4726,1 53802U 22111AF  23257.30251386 -.00000319  00000-0 -19505-5 0  9992,2 53802  53.2202  17.4120 0001574  98.2068 261.9103 15.08828863 56023,6917.914,95.438,540.868,538.691,0.0
53802.0,STARLINK-4726,PAYLOAD,2023-09-14 13:37:10,15.08819778,0.0001451,53.2201,16.2186,103.9646,256.1507,-0.00014506,-2.595e-05,0.0,0 STARLINK-4726,1 53802U 22111AF  23257.56748530 -.00002595  00000-0 -14506-3 0  9994,2 53802  53.2201  16.2186 0001451 103.9646 256.1507 15.08819778 56873,6917.942,95.439,540.811,538.803,0.0
53802.0,STARLINK-4726,PAYLOAD,2023-09-14 16:47:56,15.08823298,0.00015,53.2207,15.6238,107.1347,252.9809,-0.00011681,-2.146e-05,0.0,0 STARLINK-4726,1 53802U 22111AF  23257.69996348 -.00002146  00000-0 -11681-3 0  9993,2 53802  53.2207  15.6238 0001500 107.1347 252.9809 15.08823298 56083,6917.931,95.439,540.834,538.759,0.0
53802.0,STARLINK-4726,PAYLOAD,2023-09-15 00:44:52,15.08831224,0.0001471,53.2208,14.1374,106.5617,253.5536,-2.8345e-05,-7.39e-06,0.0,0 STARLINK-4726,1 53802U 22111AF  23258.03115839 -.00000739  00000-0 -28345-4 0  9992,2 53802  53.2208  14.1374 0001471 106.5617 253.5536 15.08831224 56137,6917.907,95.438,540.79,538.755,0.0
53802.0,STARLINK-4726,PAYLOAD,2023-09-15 13:27:55,15.08851987,0.0001355,53.2197,11.757,107.6144,252.4996,8.9722e-05,1.141e-05,0.0,0 STARLINK-4726,1 53802U 22111AF  23258.56106380  .00001141  00000-0  89722-4 0  9993,2 53802  53.2197  11.7570 0001355 107.6144 252.4996 15.08851987 57028,6917.844,95.437,540.646,538.771,0.0
53802.0,STARLINK-4726,PAYLOAD,2023-09-15 15:03:19,15.08850287,0.0001347,53.2193,11.4597,106.6349,253.4792,0.00021003,3.057e-05,0.0,0 STARLINK-4726,1 53802U 22111AF  23258.62730566  .00003057  00000-0  21003-3 0  9994,2 53802  53.2193  11.4597 0001347 106.6349 253.4792 15.08850287 56225,6917.849,95.437,540.646,538.782,0.0
53802.0,STARLINK-4726,PAYLOAD,2023-09-16 08:32:34,15.08832498,0.0001322,53.2189,8.1888,97.9928,262.1214,0.00034979,5.282e-05,0.0,0 STARLINK-4726,1 53802U 22111AF  23259.35595902  .00005282  00000-0  34979-3 0  9996,2 53802  53.2189   8.1888 0001322  97.9928 262.1214 15.08832498 56336,6917.903,95.438,540.683,538.854,0.0
53802.0,STARLINK-4726,PAYLOAD,2023-09-16 13:18:44,15.08837222,0.0001565,53.2209,7.2977,98.0129,262.1041,0.000212,3.087e-05,0.0,0 STARLINK-4726,1 53802U 22111AF  23259.55467674  .00003087  00000-0  21200-3 0  9996,2 53802  53.2209   7.2977 0001565  98.0129 262.1041 15.08837222 57173,6917.889,95.438,540.837,538.671,0.0
53802.0,STARLINK-4726,PAYLOAD,2023-09-17 13:09:30,15.08849714,0.0001322,53.219,2.837,91.9295,268.1849,0.00018371,2.638e-05,0.0,0 STARLINK-4726,1 53802U 22111AF  23260.54827066  .00002638  00000-0  18371-3 0  9998,2 53802  53.2190   2.8370 0001322  91.9295 268.1849 15.08849714 57325,6917.851,95.437,540.63,538.801,0.0
53802.0,STARLINK-4726,PAYLOAD,2023-09-17 14:44:53,15.08852082,0.000124,53.2187,2.5396,92.0138,268.0996,0.00023169,3.403e-05,0.0,0 STARLINK-4726,1 53802U 22111AF  23260.61450931  .00003403  00000-0  23169-3 0  9991,2 53802  53.2187   2.5396 0001240  92.0138 268.0996 15.08852082 56528,6917.843,95.437,540.566,538.851,0.0
53802.0,STARLINK-4726,PAYLOAD,2023-09-18 06:38:45,15.08843824,0.0001357,53.2184,359.5663,88.0248,272.09,0.00019286,2.783e-05,0.0,0 STARLINK-4726,1 53802U 22111AF  23261.27691297  .00002783  00000-0  19286-3 0  9991,2 53802  53.2184 359.5663 0001357  88.0248 272.0900 15.08843824 56628,6917.869,95.437,540.672,538.795,0.0
53802.0,STARLINK-4726,PAYLOAD,2023-09-18 13:00:17,15.08847795,0.0001241,53.218,358.3772,80.7999,279.3134,0.00021969,3.211e-05,0.0,0 STARLINK-4726,1 53802U 22111AF  23261.54187096  .00003211  00000-0  21969-3 0  9996,2 53802  53.2180 358.3772 0001241  80.7999 279.3134 15.08847795 57470,6917.857,95.437,540.58,538.863,0.0
53802.0,STARLINK-4726,PAYLOAD,2023-09-19 09:40:18,15.08850919,0.0001485,53.218,354.5118,93.9822,266.134,0.00022833,3.349e-05,0.0,0 STARLINK-4726,1 53802U 22111AF  23262.40298714  .00003349  00000-0  22833-3 0  9995,2 53802  53.2180 354.5118 0001485  93.9822 266.1340 15.08850919 56792,6917.847,95.437,540.739,538.685,0.0
53802.0,STARLINK-4726,PAYLOAD,2023-09-19 12:51:03,15.08860315,0.0001484,53.2192,353.9175,88.3742,271.742,0.00034239,5.168e-05,0.0,0 STARLINK-4726,1 53802U 22111AF  23262.53546225  .00005168  00000-0  34239-3 0  9996,2 53802  53.2192 353.9175 0001484  88.3742 271.7420 15.08860315 56814,6917.818,95.436,540.71,538.657,0.0
53802.0,STARLINK-4726,PAYLOAD,2023-09-20 12:41:52,15.0882503,0.0001348,53.218,349.454,73.1242,286.9898,-0.00019785,-3.434e-05,0.0,0 STARLINK-4726,1 53802U 22111AF  23263.52908066 -.00003434  00000-0 -19785-3 0  9996,2 53802  53.2180 349.4540 0001348  73.1242 286.9898 15.08825030 56961,6917.926,95.439,540.724,538.859,0.0
53802.0,STARLINK-4726,PAYLOAD,2023-09-21 10:57:16,15.08846636,0.0001467,53.2182,345.2928,70.7113,289.4038,0.00049712,7.634e-05,0.0,0 STARLINK-4726,1 53802U 22111AF  23264.45644024  .00007634  00000-0  49712-3 0  9997,2 53802  53.2182 345.2928 0001467  70.7113 289.4038 15.08846636 57105,6917.86,95.437,540.74,538.71,0.0
53802.0,STARLINK-4726,PAYLOAD,2023-09-21 22:04:58,15.08844996,0.0001736,53.2189,343.2132,75.2126,284.9059,0.00062225,9.63e-05,0.0,0 STARLINK-4726,1 53802U 22111AF  23264.92012237  .00009630  00000-0  62225-3 0  9996,2 53802  53.2189 343.2132 0001736  75.2126 284.9059 15.08844996 57986,6917.865,95.437,540.931,538.529,0.0
53802.0,STARLINK-4726,PAYLOAD,2023-09-22 10:48:03,15.08846064,0.0001613,53.2189,340.8341,87.544,272.5737,0.00024446,3.605e-05,0.0,0 STARLINK-4726,1 53802U 22111AF  23265.45003914  .00003605  00000-0  24446-3 0  9996,2 53802  53.2189 340.8341 0001613  87.5440 272.5737 15.08846064 57254,6917.862,95.437,540.843,538.611,0.0
53802.0,STARLINK-4726,PAYLOAD,2023-09-22 12:23:26,15.08846015,0.0001578,53.2189,340.5364,84.2832,275.834,0.00031246,4.689e-05,0.0,0 STARLINK-4726,1 53802U 22111AF  23265.51627966  .00004689  00000-0  31246-3 0  9991,2 53802  53.2189 340.5364 0001578  84.2832 275.8340 15.08846015 58078,6917.862,95.437,540.819,538.635,0.0
53802.0,STARLINK-4726,PAYLOAD,2023-09-22 21:55:45,15.08844804,0.0001602,53.2191,338.7515,82.1012,278.0162,0.00011638,1.565e-05,0.0,0 STARLINK-4726,1 53802U 22111AF  23265.91371832  .00001565  00000-0  11638-3 0  9996,2 53802  53.2191 338.7515 0001602  82.1012 278.0162 15.08844804 58131,6917.866,95.437,540.839,538.622,0.0
